[{"OBJECT_NAME":"SES-2","OBJECT_ID":"2011-049A","EPOCH":"2026-03-15T04:38:04.793856","MEAN_MOTION":1.00272266,"ECCENTRICITY":0.00028143,"INCLINATION":0.0369,"RA_OF_ASC_NODE":74.0461,"ARG_OF_PERICENTER":282.7933,"MEAN_ANOMALY":158.4729,"EPHEMERIS_TYPE":0,"CLASSIFICATION_TYPE":"U","NORAD_CAT_ID":37809,"ELEMENT_SET_NO":999,"REV_AT_EPOCH":5302,"BSTAR":0,"MEAN_MOTION_DOT":-1.97e-6,"MEAN_MOTION_DDOT":0},{"OBJECT_NAME":"QUETZSAT 1","OBJECT_ID":"2011-054A","EPOCH":"2026-03-15T06:23:32.181216","MEAN_MOTION":1.00269915,"ECCENTRICITY":0.00027376,"INCLINATION":0.0299,"RA_OF_ASC_NODE":282.5185,"ARG_OF_PERICENTER":86.1374,"MEAN_ANOMALY":183.0722,"EPHEMERIS_TYPE":0,"CLASSIFICATION_TYPE":"U","NORAD_CAT_ID":37826,"ELEMENT_SET_NO":999,"REV_AT_EPOCH":4893,"BSTAR":0,"MEAN_MOTION_DOT":-2.42e-6,"MEAN_MOTION_DDOT":0},{"OBJECT_NAME":"SES-4","OBJECT_ID":"2012-007A","EPOCH":"2026-03-15T03:13:50.373120","MEAN_MOTION":1.00273193,"ECCENTRICITY":0.00023207,"INCLINATION":0.032,"RA_OF_ASC_NODE":63.2592,"ARG_OF_PERICENTER":285.0691,"MEAN_ANOMALY":210.8636,"EPHEMERIS_TYPE":0,"CLASSIFICATION_TYPE":"U","NORAD_CAT_ID":38087,"ELEMENT_SET_NO":999,"REV_AT_EPOCH":5128,"BSTAR":0,"MEAN_MOTION_DOT":-1.69e-6,"MEAN_MOTION_DDOT":0},{"OBJECT_NAME":"SES-5","OBJECT_ID":"2012-036A","EPOCH":"2026-03-15T06:46:52.444416","MEAN_MOTION":1.00271747,"ECCENTRICITY":0.00017933,"INCLINATION":0.0644,"RA_OF_ASC_NODE":306.6859,"ARG_OF_PERICENTER":47.2719,"MEAN_ANOMALY":285.6198,"EPHEMERIS_TYPE":0,"CLASSIFICATION_TYPE":"U","NORAD_CAT_ID":38652,"ELEMENT_SET_NO":999,"REV_AT_EPOCH":4351,"BSTAR":0,"MEAN_MOTION_DOT":3.3e-7,"MEAN_MOTION_DDOT":0},{"OBJECT_NAME":"ASTRA 2F","OBJECT_ID":"2012-051A","EPOCH":"2026-03-15T06:05:38.644800","MEAN_MOTION":1.00272783,"ECCENTRICITY":0.00019944,"INCLINATION":0.0719,"RA_OF_ASC_NODE":256.3917,"ARG_OF_PERICENTER":24.4735,"MEAN_ANOMALY":11.5782,"EPHEMERIS_TYPE":0,"CLASSIFICATION_TYPE":"U","NORAD_CAT_ID":38778,"ELEMENT_SET_NO":999,"REV_AT_EPOCH":4019,"BSTAR":0,"MEAN_MOTION_DOT":1.49e-6,"MEAN_MOTION_DDOT":0},{"OBJECT_NAME":"SES-6","OBJECT_ID":"2013-026A","EPOCH":"2026-03-15T06:52:05.354112","MEAN_MOTION":1.00270718,"ECCENTRICITY":0.00020464,"INCLINATION":0.0475,"RA_OF_ASC_NODE":302.9434,"ARG_OF_PERICENTER":72.4992,"MEAN_ANOMALY":219.9559,"EPHEMERIS_TYPE":0,"CLASSIFICATION_TYPE":"U","NORAD_CAT_ID":39172,"ELEMENT_SET_NO":999,"REV_AT_EPOCH":4678,"BSTAR":0,"MEAN_MOTION_DOT":-2.62e-6,"MEAN_MOTION_DDOT":0},{"OBJECT_NAME":"O3B FM5","OBJECT_ID":"2013-031A","EPOCH":"2026-03-15T02:11:51.681696","MEAN_MOTION":5.00116494,"ECCENTRICITY":0.00032866,"INCLINATION":0.0995,"RA_OF_ASC_NODE":11.2024,"ARG_OF_PERICENTER":333.8033,"MEAN_ANOMALY":14.9812,"EPHEMERIS_TYPE":0,"CLASSIFICATION_TYPE":"U","NORAD_CAT_ID":39188,"ELEMENT_SET_NO":999,"REV_AT_EPOCH":23233,"BSTAR":0,"MEAN_MOTION_DOT":-2.0e-7,"MEAN_MOTION_DDOT":0},{"OBJECT_NAME":"O3B FM4","OBJECT_ID":"2013-031B","EPOCH":"2026-03-13T09:52:53.892768","MEAN_MOTION":5.00115278,"ECCENTRICITY":0.00050987,"INCLINATION":0.0547,"RA_OF_ASC_NODE":345.1246,"ARG_OF_PERICENTER":15.5435,"MEAN_ANOMALY":359.3289,"EPHEMERIS_TYPE":0,"CLASSIFICATION_TYPE":"U","NORAD_CAT_ID":39189,"ELEMENT_SET_NO":999,"REV_AT_EPOCH":23224,"BSTAR":0,"MEAN_MOTION_DOT":-2.2e-7,"MEAN_MOTION_DDOT":0},{"OBJECT_NAME":"O3B FM2","OBJECT_ID":"2013-031C","EPOCH":"2026-03-14T21:02:21.382368","MEAN_MOTION":5.00115986,"ECCENTRICITY":0.0002826,"INCLINATION":0.0549,"RA_OF_ASC_NODE":338.8631,"ARG_OF_PERICENTER":11.4299,"MEAN_ANOMALY":9.6981,"EPHEMERIS_TYPE":0,"CLASSIFICATION_TYPE":"U","NORAD_CAT_ID":39190,"ELEMENT_SET_NO":999,"REV_AT_EPOCH":23239,"BSTAR":0,"MEAN_MOTION_DOT":-2.0e-7,"MEAN_MOTION_DDOT":0},{"OBJECT_NAME":"O3B PFM","OBJECT_ID":"2013-031D","EPOCH":"2026-03-06T02:17:37.197024","MEAN_MOTION":5.00115906,"ECCENTRICITY":0.00051477,"INCLINATION":0.0668,"RA_OF_ASC_NODE":7.2787,"ARG_OF_PERICENTER":352.3292,"MEAN_ANOMALY":0.3862,"EPHEMERIS_TYPE":0,"CLASSIFICATION_TYPE":"U","NORAD_CAT_ID":39191,"ELEMENT_SET_NO":999,"REV_AT_EPOCH":23151,"BSTAR":0,"MEAN_MOTION_DOT":-2.6e-7,"MEAN_MOTION_DDOT":0},{"OBJECT_NAME":"ASTRA 2E","OBJECT_ID":"2013-056A","EPOCH":"2026-03-14T22:53:42.791136","MEAN_MOTION":1.00269254,"ECCENTRICITY":0.00026139,"INCLINATION":0.0881,"RA_OF_ASC_NODE":45.7219,"ARG_OF_PERICENTER":301.8006,"MEAN_ANOMALY":196.9541,"EPHEMERIS_TYPE":0,"CLASSIFICATION_TYPE":"U","NORAD_CAT_ID":39285,"ELEMENT_SET_NO":999,"REV_AT_EPOCH":4547,"BSTAR":0,"MEAN_MOTION_DOT":1.49e-6,"MEAN_MOTION_DDOT":0},{"OBJECT_NAME":"SES-8","OBJECT_ID":"2013-071A","EPOCH":"2026-03-15T02:04:34.515840","MEAN_MOTION":1.00272936,"ECCENTRICITY":0.00018892,"INCLINATION":0.0369,"RA_OF_ASC_NODE":262.8689,"ARG_OF_PERICENTER":124.4065,"MEAN_ANOMALY":271.5643,"EPHEMERIS_TYPE":0,"CLASSIFICATION_TYPE":"U","NORAD_CAT_ID":39460,"ELEMENT_SET_NO":999,"REV_AT_EPOCH":4349,"BSTAR":0,"MEAN_MOTION_DOT":-2.7e-6,"MEAN_MOTION_DDOT":0},{"OBJECT_NAME":"ASTRA 5B","OBJECT_ID":"2014-011B","EPOCH":"2026-03-15T03:13:38.540640","MEAN_MOTION":1.00269723,"ECCENTRICITY":0.00037882,"INCLINATION":0.0952,"RA_OF_ASC_NODE":297.1875,"ARG_OF_PERICENTER":38.2302,"MEAN_ANOMALY":269.2327,"EPHEMERIS_TYPE":0,"CLASSIFICATION_TYPE":"U","NORAD_CAT_ID":39617,"ELEMENT_SET_NO":999,"REV_AT_EPOCH":4372,"BSTAR":0,"MEAN_MOTION_DOT":1.36e-6,"MEAN_MOTION_DDOT":0},{"OBJECT_NAME":"O3B FM3","OBJECT_ID":"2014-038A","EPOCH":"2026-03-15T03:46:27.993216","MEAN_MOTION":5.00115598,"ECCENTRICITY":6.567e-5,"INCLINATION":0.0529,"RA_OF_ASC_NODE":353.7505,"ARG_OF_PERICENTER":63.7945,"MEAN_ANOMALY":302.4581,"EPHEMERIS_TYPE":0,"CLASSIFICATION_TYPE":"U","NORAD_CAT_ID":40079,"ELEMENT_SET_NO":999,"REV_AT_EPOCH":20833,"BSTAR":0,"MEAN_MOTION_DOT":-1.9e-7,"MEAN_MOTION_DDOT":0},{"OBJECT_NAME":"O3B FM7","OBJECT_ID":"2014-038B","EPOCH":"2026-03-13T07:18:15.302592","MEAN_MOTION":5.00115635,"ECCENTRICITY":0.00043845,"INCLINATION":0.0586,"RA_OF_ASC_NODE":348.607,"ARG_OF_PERICENTER":352.5506,"MEAN_ANOMALY":18.8225,"EPHEMERIS_TYPE":0,"CLASSIFICATION_TYPE":"U","NORAD_CAT_ID":40080,"ELEMENT_SET_NO":999,"REV_AT_EPOCH":21308,"BSTAR":0,"MEAN_MOTION_DOT":-2.2e-7,"MEAN_MOTION_DDOT":0},{"OBJECT_NAME":"O3B FM6","OBJECT_ID":"2014-038C","EPOCH":"2026-03-15T03:07:43.372704","MEAN_MOTION":5.00115707,"ECCENTRICITY":0.00026409,"INCLINATION":0.0547,"RA_OF_ASC_NODE":351.3156,"ARG_OF_PERICENTER":0.9701,"MEAN_ANOMALY":7.7068,"EPHEMERIS_TYPE":0,"CLASSIFICATION_TYPE":"U","NORAD_CAT_ID":40081,"ELEMENT_SET_NO":999,"REV_AT_EPOCH":21312,"BSTAR":0,"MEAN_MOTION_DOT":-1.9e-7,"MEAN_MOTION_DDOT":0},{"OBJECT_NAME":"O3B FM8","OBJECT_ID":"2014-038D","EPOCH":"2026-03-15T04:24:29.487168","MEAN_MOTION":5.00115993,"ECCENTRICITY":0.00026475,"INCLINATION":0.0555,"RA_OF_ASC_NODE":350.608,"ARG_OF_PERICENTER":5.3351,"MEAN_ANOMALY":4.0513,"EPHEMERIS_TYPE":0,"CLASSIFICATION_TYPE":"U","NORAD_CAT_ID":40082,"ELEMENT_SET_NO":999,"REV_AT_EPOCH":21324,"BSTAR":0,"MEAN_MOTION_DOT":-1.9e-7,"MEAN_MOTION_DDOT":0}]
